INTELSAT 23 (IS-23)     
1 38867U 12057A   26192.48316638 -.00000279  00000+0  00000+0 0  9993
2 38867   0.0154  27.0451 0000218 162.2022 221.0640  1.00274259 50199
FM-6                    
1 39360U 13058A   26192.47059964 -.00000010  00000+0  00000+0 0  9992
2 39360   0.0159  48.4433 0001314 129.4271 164.5647  1.00270007 46313
INTELSAT 30 (IS-30)     
1 40271U 14062A   26192.47484633 -.00000144  00000+0  00000+0 0  9994
2 40271   0.0169  47.6034 0001545 324.6641 353.0107  1.00266396  7039
DIRECTV 14              
1 40333U 14078B   26192.47397965 -.00000119  00000+0  00000+0 0  9993
2 40333   0.0106  36.3594 0000268 275.9248  48.4871  1.00270012 42286
DIRECTV 15              
1 40663U 15026A   26192.38988845 -.00000096  00000+0  00000+0 0  9990
2 40663   0.0189  71.7940 0000191 175.2336  79.7574  1.00271076 40709
SKY MEXICO-1            
1 40664U 15026B   26192.47805301 -.00000228  00000+0  00000+0 0  9993
2 40664   0.0063  54.9721 0002305  79.5804 248.1342  1.00271043 40693
INTELSAT 34 (IS-34)     
1 40874U 15039A   26192.48264638 -.00000280  00000+0  00000+0 0  9991
2 40874   0.0100 359.1933 0000254 351.6992  56.7606  1.00274184 39879
INTELSAT 31 (IS-31)     
1 41581U 16035A   26192.47484633 -.00000144  00000+0  00000+0 0  9991
2 41581   0.0198 281.6340 0001322   8.3188  75.3229  1.00266396 36920
INTELSAT 36 (IS-36)     
1 41747U 16053A   26192.51016895 -.00000018  00000+0  00000+0 0  9991
2 41747   0.0105 355.6291 0002514 345.6309 200.3095  1.00269566 36209
INTELSAT 32E (IS-32E)   
1 41945U 17007B   26191.13065417  .00000000  00000+0  00000+0 0  9992
2 41945   0.0258  33.0821 0000341 235.9737  22.8541  1.00267562 34458
INTELSAT 35E (IS-35E)   
1 42818U 17041A   26192.45139756 -.00000232  00000+0  00000+0 0  9992
2 42818   0.0186  35.2922 0001597  74.0721 308.0046  1.00270211 33052
INTELSAT 37E (IS-37E)   
1 42950U 17059A   26192.41879102 -.00000135  00000+0  00000+0 0  9992
2 42950   0.0155  54.3841 0002493  63.4317 304.2755  1.00270619 32300
AZERSPACE 2 (IS-38)     
1 43632U 18074A   26192.21739434  .00000000  00000+0  00000+0 0  9999
2 43632   0.0273  38.7820 0001235  92.2329 281.4917  1.00270656 28681
HORIZONS-3E             
1 43633U 18074B   26192.45581247 -.00000025  00000+0  00000+0 0  9991
2 43633   0.0403 220.7856 0000925  54.1940 347.4770  1.00269733 28583
AT&T T-16               
1 44333U 19034A   26192.47363300 -.00000109  00000+0  00000+0 0  9999
2 44333   0.0134  58.2588 0000958 271.4646  29.3095  1.00268453 25874
INTELSAT 39 (IS-39)     
1 44476U 19049B   26192.43465110  .00000000  00000+0  00000+0 0  9990
2 44476   0.0278  39.2819 0000889 281.8876 186.5962  1.00270150 25371
GALAXY 30 (G-30)        
1 46114U 20056C   26192.46919784  .00000000  00000+0  00000+0 0  9995
2 46114   0.0294  43.0423 0001931  72.4465 217.7972  1.00270594 21535
GALAXY 33 (G-33)        
1 54026U 22128A   26192.47475235  .00000085  00000+0  00000+0 0  9990
2 54026   0.0140  26.5296 0001773  92.1598 208.6012  1.00270878 13989
GALAXY 34 (G-34)        
1 54027U 22128B   26192.04037515  .00000067  00000+0  00000+0 0  9999
2 54027   0.0112  37.5715 0001349  92.1383  44.7761  1.00269972 14151
GALAXY 31 (G-31)        
1 54243U 22153A   26192.46964631  .00000000  00000+0  00000+0 0  9998
2 54243   0.0233  53.1021 0000920  65.2373 219.1043  1.00270038  7375
GALAXY 32 (G-32)        
1 54244U 22153B   26192.26174808 -.00000167  00000+0  00000+0 0  9991
2 54244   0.0115  41.9388 0001457   4.2849 246.1793  1.00271069 13388
GALAXY 35 (G-35)        
1 54741U 22170A   26192.47519301  .00000000  00000+0  00000+0 0  9991
2 54741   0.0200  45.0334 0001862  71.0414 251.2751  1.00269383 13131
GALAXY 36 (G-36)        
1 54742U 22170B   26192.47605968 -.00000179  00000+0  00000+0 0  9995
2 54742   0.0278 112.8696 0002373 346.7440 272.1537  1.00271220 13014
GALAXY 37 (G-37)        
1 57493U 23112A   26192.46919784  .00000054  00000+0  00000+0 0  9992
2 57493   0.0143  65.5454 0001755  49.9738 215.7641  1.00270621 10786
